{
  "type": "FeatureCollection",
  "features": [
    {
      "type": "Feature",
      "properties": {
        "norad_id": 66960,
        "name": "STARLINK-35879",
        "group": "last-30-days",
        "lat": -29.94352394231835,
        "lon": -22.0462048398575,
        "alt_km": 330.1455356432298,
        "timestamp": "2025-12-20T11:30:27.107722+00:00",
        "meta_object_name": "STARLINK-35879",
        "meta_object_id": "2025-288B",
        "meta_epoch": "2025-12-20T04:00:00.999072",
        "meta_mean_motion": 15.81629535,
        "meta_eccentricity": 0.00017,
        "meta_inclination": 43.0016,
        "meta_ra_of_asc_node": 121.6886,
        "meta_arg_of_pericenter": 266.0535,
        "meta_mean_anomaly": 338.2346,
        "meta_ephemeris_type": 0,
        "meta_classification_type": "U",
        "meta_norad_cat_id": 66960,
        "meta_element_set_no": 999,
        "meta_rev_at_epoch": 302,
        "meta_bstar": -0.0071482,
        "meta_mean_motion_dot": -0.01300777,
        "meta_mean_motion_ddot": 0,
        "tle_line1": "1 66960U 25288B   25354.16667823 -.01300777  00000+0 -71482-2 0  9990",
        "tle_line2": "2 66960  43.0016 121.6886 0001700 266.0535 338.2346 15.81629535  3029"
      },
      "geometry": {
        "type": "Point",
        "coordinates": [
          -22.0462048398575,
          -29.94352394231835
        ]
      }
    },
    {
      "type": "Feature",
      "properties": {
        "norad_id": 66961,
        "name": "STARLINK-35761",
        "group": "last-30-days",
        "lat": -31.038255134597396,
        "lon": -20.00893498605095,
        "alt_km": 330.3401047163088,
        "timestamp": "2025-12-20T11:30:27.107734+00:00",
        "meta_object_name": "STARLINK-35761",
        "meta_object_id": "2025-288C",
        "meta_epoch": "2025-12-20T04:00:00.999072",
        "meta_mean_motion": 15.81631664,
        "meta_eccentricity": 0.0001495,
        "meta_inclination": 43.0015,
        "meta_ra_of_asc_node": 121.6839,
        "meta_arg_of_pericenter": 268.2299,
        "meta_mean_anomaly": 338.1336,
        "meta_ephemeris_type": 0,
        "meta_classification_type": "U",
        "meta_norad_cat_id": 66961,
        "meta_element_set_no": 999,
        "meta_rev_at_epoch": 302,
        "meta_bstar": -0.0072134,
        "meta_mean_motion_dot": -0.01311167,
        "meta_mean_motion_ddot": 0,
        "tle_line1": "1 66961U 25288C   25354.16667823 -.01311167  00000+0 -72134-2 0  9991",
        "tle_line2": "2 66961  43.0015 121.6839 0001495 268.2299 338.1336 15.81631664  3023"
      },
      "geometry": {
        "type": "Point",
        "coordinates": [
          -20.00893498605095,
          -31.038255134597396
        ]
      }
    },
    {
      "type": "Feature",
      "properties": {
        "norad_id": 66962,
        "name": "STARLINK-35874",
        "group": "last-30-days",
        "lat": -32.32412230373783,
        "lon": -17.47171278156864,
        "alt_km": 330.3406311726758,
        "timestamp": "2025-12-20T11:30:27.107746+00:00",
        "meta_object_name": "STARLINK-35874",
        "meta_object_id": "2025-288D",
        "meta_epoch": "2025-12-20T04:00:00.999072",
        "meta_mean_motion": 15.81588544,
        "meta_eccentricity": 0.0001704,
        "meta_inclination": 43.0017,
        "meta_ra_of_asc_node": 121.677,
        "meta_arg_of_pericenter": 262.6227,
        "meta_mean_anomaly": 346.3147,
        "meta_ephemeris_type": 0,
        "meta_classification_type": "U",
        "meta_norad_cat_id": 66962,
        "meta_element_set_no": 999,
        "meta_rev_at_epoch": 302,
        "meta_bstar": -0.007303,
        "meta_mean_motion_dot": -0.01323203,
        "meta_mean_motion_ddot": 0,
        "tle_line1": "1 66962U 25288D   25354.16667823 -.01323203  00000+0 -73030-2 0  9992",
        "tle_line2": "2 66962  43.0017 121.6770 0001704 262.6227 346.3147 15.81588544  3021"
      },
      "geometry": {
        "type": "Point",
        "coordinates": [
          -17.47171278156864,
          -32.32412230373783
        ]
      }
    },
    {
      "type": "Feature",
      "properties": {
        "norad_id": 66963,
        "name": "STARLINK-36133",
        "group": "last-30-days",
        "lat": -33.35244324181258,
        "lon": -15.309076138659691,
        "alt_km": 330.3907831561937,
        "timestamp": "2025-12-20T11:30:27.107756+00:00",
        "meta_object_name": "STARLINK-36133",
        "meta_object_id": "2025-288E",
        "meta_epoch": "2025-12-20T04:00:00.999072",
        "meta_mean_motion": 15.81581255,
        "meta_eccentricity": 0.0001736,
        "meta_inclination": 43.0017,
        "meta_ra_of_asc_node": 121.6718,
        "meta_arg_of_pericenter": 263.4737,
        "meta_mean_anomaly": 347.5665,
        "meta_ephemeris_type": 0,
        "meta_classification_type": "U",
        "meta_norad_cat_id": 66963,
        "meta_element_set_no": 999,
        "meta_rev_at_epoch": 302,
        "meta_bstar": -0.0073138,
        "meta_mean_motion_dot": -0.01324541,
        "meta_mean_motion_ddot": 0,
        "tle_line1": "1 66963U 25288E   25354.16667823 -.01324541  00000+0 -73138-2 0  9998",
        "tle_line2": "2 66963  43.0017 121.6718 0001736 263.4737 347.5665 15.81581255  3024"
      },
      "geometry": {
        "type": "Point",
        "coordinates": [
          -15.309076138659691,
          -33.35244324181258
        ]
      }
    },
    {
      "type": "Feature",
      "properties": {
        "norad_id": 66964,
        "name": "STARLINK-36104",
        "group": "last-30-days",
        "lat": -34.36470748799623,
        "lon": -13.04449043364287,
        "alt_km": 330.48589340527906,
        "timestamp": "2025-12-20T11:30:27.107766+00:00",
        "meta_object_name": "STARLINK-36104",
        "meta_object_id": "2025-288F",
        "meta_epoch": "2025-12-20T04:00:00.999072",
        "meta_mean_motion": 15.81570887,
        "meta_eccentricity": 0.0001751,
        "meta_inclination": 43.0018,
        "meta_ra_of_asc_node": 121.6658,
        "meta_arg_of_pericenter": 266.1176,
        "meta_mean_anomaly": 347.0793,
        "meta_ephemeris_type": 0,
        "meta_classification_type": "U",
        "meta_norad_cat_id": 66964,
        "meta_element_set_no": 999,
        "meta_rev_at_epoch": 302,
        "meta_bstar": -0.0073448,
        "meta_mean_motion_dot": -0.01328897,
        "meta_mean_motion_ddot": 0,
        "tle_line1": "1 66964U 25288F   25354.16667823 -.01328897  00000+0 -73448-2 0  9991",
        "tle_line2": "2 66964  43.0018 121.6658 0001751 266.1176 347.0793 15.81570887  3029"
      },
      "geometry": {
        "type": "Point",
        "coordinates": [
          -13.04449043364287,
          -34.36470748799623
        ]
      }
    },
    {
      "type": "Feature",
      "properties": {
        "norad_id": 66965,
        "name": "STARLINK-36067",
        "group": "last-30-days",
        "lat": -35.333274203468754,
        "lon": -10.725731122168833,
        "alt_km": 330.6813509400281,
        "timestamp": "2025-12-20T11:30:27.107776+00:00",
        "meta_object_name": "STARLINK-36067",
        "meta_object_id": "2025-288G",
        "meta_epoch": "2025-12-20T04:00:00.999072",
        "meta_mean_motion": 15.81566504,
        "meta_eccentricity": 0.0001554,
        "meta_inclination": 43.0017,
        "meta_ra_of_asc_node": 121.6611,
        "meta_arg_of_pericenter": 267.7642,
        "meta_mean_anomaly": 347.5821,
        "meta_ephemeris_type": 0,
        "meta_classification_type": "U",
        "meta_norad_cat_id": 66965,
        "meta_element_set_no": 999,
        "meta_rev_at_epoch": 302,
        "meta_bstar": -0.0074087,
        "meta_mean_motion_dot": -0.01364135,
        "meta_mean_motion_ddot": 0,
        "tle_line1": "1 66965U 25288G   25354.16667823 -.01364135  00000+0 -74087-2 0  9997",
        "tle_line2": "2 66965  43.0017 121.6611 0001554 267.7642 347.5821 15.81566504  3022"
      },
      "geometry": {
        "type": "Point",
        "coordinates": [
          -10.725731122168833,
          -35.333274203468754
        ]
      }
    },
    {
      "type": "Feature",
      "properties": {
        "norad_id": 66966,
        "name": "STARLINK-36139",
        "group": "last-30-days",
        "lat": -36.38431747644366,
        "lon": -8.00971635751467,
        "alt_km": 330.8418759962942,
        "timestamp": "2025-12-20T11:30:27.107786+00:00",
        "meta_object_name": "STARLINK-36139",
        "meta_object_id": "2025-288H",
        "meta_epoch": "2025-12-20T04:00:00.999072",
        "meta_mean_motion": 15.81529944,
        "meta_eccentricity": 0.0001473,
        "meta_inclination": 43.0018,
        "meta_ra_of_asc_node": 121.6548,
        "meta_arg_of_pericenter": 262.3877,
        "meta_mean_anomaly": 355.4509,
        "meta_ephemeris_type": 0,
        "meta_classification_type": "U",
        "meta_norad_cat_id": 66966,
        "meta_element_set_no": 999,
        "meta_rev_at_epoch": 302,
        "meta_bstar": -0.0075204,
        "meta_mean_motion_dot": -0.01380299,
        "meta_mean_motion_ddot": 0,
        "tle_line1": "1 66966U 25288H   25354.16667823 -.01380299  00000+0 -75204-2 0  9999",
        "tle_line2": "2 66966  43.0018 121.6548 0001473 262.3877 355.4509 15.81529944  3022"
      },
      "geometry": {
        "type": "Point",
        "coordinates": [
          -8.00971635751467,
          -36.38431747644366
        ]
      }
    }
  ]
}